{
  "type": "FeatureCollection",
  "features": [
    {
      "type": "Feature",
      "properties": {
        "norad_id": 34722,
        "name": "COSMOS 2251 DEB",
        "group": "cosmos-2251-debris",
        "lat": -56.807147116181646,
        "lon": -168.530215071294,
        "alt_km": 755.3740840805076,
        "timestamp": "2025-12-07T14:37:05.598551+00:00",
        "meta_object_name": "COSMOS 2251 DEB",
        "meta_object_id": "1993-036YQ",
        "meta_epoch": "2025-12-06T10:59:26.093760",
        "meta_mean_motion": 14.11903197,
        "meta_eccentricity": 0.01673731,
        "meta_inclination": 73.8723,
        "meta_ra_of_asc_node": 347.2724,
        "meta_arg_of_pericenter": 273.9051,
        "meta_mean_anomaly": 238.7322,
        "meta_ephemeris_type": 0,
        "meta_classification_type": "U",
        "meta_norad_cat_id": 34722,
        "meta_element_set_no": 999,
        "meta_rev_at_epoch": 86156,
        "meta_bstar": 0.0015913748,
        "meta_mean_motion_dot": 3.292e-05,
        "meta_mean_motion_ddot": 0,
        "tle_line1": "1 34722U 93036YQ  25340.45794090  .00003292  00000+0  15914-2 0  9998",
        "tle_line2": "2 34722  73.8723 347.2724 0167373 273.9051 238.7322 14.11903197861562"
      },
      "geometry": {
        "type": "Point",
        "coordinates": [
          -168.530215071294,
          -56.807147116181646
        ]
      }
    },
    {
      "type": "Feature",
      "properties": {
        "norad_id": 34726,
        "name": "COSMOS 2251 DEB",
        "group": "cosmos-2251-debris",
        "lat": 62.87970947823875,
        "lon": 142.11406837582572,
        "alt_km": 664.3221056310031,
        "timestamp": "2025-12-07T14:37:05.598561+00:00",
        "meta_object_name": "COSMOS 2251 DEB",
        "meta_object_id": "1993-036YU",
        "meta_epoch": "2025-12-06T20:00:34.392096",
        "meta_mean_motion": 14.59448783,
        "meta_eccentricity": 0.0042302,
        "meta_inclination": 74.029,
        "meta_ra_of_asc_node": 357.5901,
        "meta_arg_of_pericenter": 150.2287,
        "meta_mean_anomaly": 210.1299,
        "meta_ephemeris_type": 0,
        "meta_classification_type": "U",
        "meta_norad_cat_id": 34726,
        "meta_element_set_no": 999,
        "meta_rev_at_epoch": 88416,
        "meta_bstar": 0.00073311508,
        "meta_mean_motion_dot": 3.491e-05,
        "meta_mean_motion_ddot": 0,
        "tle_line1": "1 34726U 93036YU  25340.83373139  .00003491  00000+0  73312-3 0  9999",
        "tle_line2": "2 34726  74.0290 357.5901 0042302 150.2287 210.1299 14.59448783884166"
      },
      "geometry": {
        "type": "Point",
        "coordinates": [
          142.11406837582572,
          62.87970947823875
        ]
      }
    },
    {
      "type": "Feature",
      "properties": {
        "norad_id": 34728,
        "name": "COSMOS 2251 DEB",
        "group": "cosmos-2251-debris",
        "lat": 36.51579544967764,
        "lon": 69.49073862368061,
        "alt_km": 650.9827184134865,
        "timestamp": "2025-12-07T14:37:05.598571+00:00",
        "meta_object_name": "COSMOS 2251 DEB",
        "meta_object_id": "1993-036YW",
        "meta_epoch": "2025-12-06T05:19:50.065536",
        "meta_mean_motion": 14.70746647,
        "meta_eccentricity": 0.00408299,
        "meta_inclination": 74.0179,
        "meta_ra_of_asc_node": 264.4359,
        "meta_arg_of_pericenter": 63.9353,
        "meta_mean_anomaly": 296.6012,
        "meta_ephemeris_type": 0,
        "meta_classification_type": "U",
        "meta_norad_cat_id": 34728,
        "meta_element_set_no": 999,
        "meta_rev_at_epoch": 88704,
        "meta_bstar": 0.0014731687,
        "meta_mean_motion_dot": 9.083e-05,
        "meta_mean_motion_ddot": 0,
        "tle_line1": "1 34728U 93036YW  25340.22210724  .00009083  00000+0  14732-2 0  9997",
        "tle_line2": "2 34728  74.0179 264.4359 0040829  63.9353 296.6012 14.70746647887048"
      },
      "geometry": {
        "type": "Point",
        "coordinates": [
          69.49073862368061,
          36.51579544967764
        ]
      }
    },
    {
      "type": "Feature",
      "properties": {
        "norad_id": 34729,
        "name": "COSMOS 2251 DEB",
        "group": "cosmos-2251-debris",
        "lat": -60.072280312175096,
        "lon": -21.266300771363376,
        "alt_km": 636.0322446233795,
        "timestamp": "2025-12-07T14:37:05.598581+00:00",
        "meta_object_name": "COSMOS 2251 DEB",
        "meta_object_id": "1993-036YX",
        "meta_epoch": "2025-12-06T20:15:19.026144",
        "meta_mean_motion": 14.8254801,
        "meta_eccentricity": 0.00119478,
        "meta_inclination": 74.018,
        "meta_ra_of_asc_node": 10.1059,
        "meta_arg_of_pericenter": 132.7151,
        "meta_mean_anomaly": 41.0108,
        "meta_ephemeris_type": 0,
        "meta_classification_type": "U",
        "meta_norad_cat_id": 34729,
        "meta_element_set_no": 999,
        "meta_rev_at_epoch": 88370,
        "meta_bstar": 0.0030944347,
        "meta_mean_motion_dot": 0.0002497,
        "meta_mean_motion_ddot": 0,
        "tle_line1": "1 34729U 93036YX  25340.84397021  .00024970  00000+0  30944-2 0  9997",
        "tle_line2": "2 34729  74.0180  10.1059 0011947 132.7151  41.0108 14.82548010883708"
      },
      "geometry": {
        "type": "Point",
        "coordinates": [
          -21.266300771363376,
          -60.072280312175096
        ]
      }
    },
    {
      "type": "Feature",
      "properties": {
        "norad_id": 34732,
        "name": "COSMOS 2251 DEB",
        "group": "cosmos-2251-debris",
        "lat": 73.434580611249,
        "lon": -151.3338743355133,
        "alt_km": 754.1991882494831,
        "timestamp": "2025-12-07T14:37:05.598591+00:00",
        "meta_object_name": "COSMOS 2251 DEB",
        "meta_object_id": "1993-036ZA",
        "meta_epoch": "2025-12-06T15:02:21.684768",
        "meta_mean_motion": 14.47289594,
        "meta_eccentricity": 0.00404754,
        "meta_inclination": 74.0448,
        "meta_ra_of_asc_node": 104.6087,
        "meta_arg_of_pericenter": 256.7471,
        "meta_mean_anomaly": 121.1411,
        "meta_ephemeris_type": 0,
        "meta_classification_type": "U",
        "meta_norad_cat_id": 34732,
        "meta_element_set_no": 999,
        "meta_rev_at_epoch": 88055,
        "meta_bstar": 0.00029482269,
        "meta_mean_motion_dot": 1.062e-05,
        "meta_mean_motion_ddot": 0,
        "tle_line1": "1 34732U 93036ZA  25340.62663987  .00001062  00000+0  29482-3 0  9997",
        "tle_line2": "2 34732  74.0448 104.6087 0040475 256.7471 121.1411 14.47289594880556"
      },
      "geometry": {
        "type": "Point",
        "coordinates": [
          -151.3338743355133,
          73.434580611249
        ]
      }
    },
    {
      "type": "Feature",
      "properties": {
        "norad_id": 34736,
        "name": "COSMOS 2251 DEB",
        "group": "cosmos-2251-debris",
        "lat": -35.48114785966638,
        "lon": -120.77342521585534,
        "alt_km": 451.42788586944425,
        "timestamp": "2025-12-07T14:37:05.598601+00:00",
        "meta_object_name": "COSMOS 2251 DEB",
        "meta_object_id": "1993-036ZE",
        "meta_epoch": "2025-12-06T22:06:49.677120",
        "meta_mean_motion": 15.42240724,
        "meta_eccentricity": 0.00167045,
        "meta_inclination": 74.0028,
        "meta_ra_of_asc_node": 48.9205,
        "meta_arg_of_pericenter": 351.4545,
        "meta_mean_anomaly": 8.6377,
        "meta_ephemeris_type": 0,
        "meta_classification_type": "U",
        "meta_norad_cat_id": 34736,
        "meta_element_set_no": 999,
        "meta_rev_at_epoch": 88358,
        "meta_bstar": 0.0095653947,
        "meta_mean_motion_dot": 0.0043694,
        "meta_mean_motion_ddot": 0,
        "tle_line1": "1 34736U 93036ZE  25340.92140830  .00436940  00000+0  95654-2 0  9991",
        "tle_line2": "2 34736  74.0028  48.9205 0016704 351.4545   8.6377 15.42240724883583"
      },
      "geometry": {
        "type": "Point",
        "coordinates": [
          -120.77342521585534,
          -35.48114785966638
        ]
      }
    },
    {
      "type": "Feature",
      "properties": {
        "norad_id": 34738,
        "name": "COSMOS 2251 DEB",
        "group": "cosmos-2251-debris",
        "lat": 33.24380432686659,
        "lon": -37.97477847081226,
        "alt_km": 765.8246794030683,
        "timestamp": "2025-12-07T14:37:05.598610+00:00",
        "meta_object_name": "COSMOS 2251 DEB",
        "meta_object_id": "1993-036ZG",
        "meta_epoch": "2025-12-06T21:54:43.378848",
        "meta_mean_motion": 14.46280761,
        "meta_eccentricity": 0.00472403,
        "meta_inclination": 74.0142,
        "meta_ra_of_asc_node": 154.1561,
        "meta_arg_of_pericenter": 301.5148,
        "meta_mean_anomaly": 181.0495,
        "meta_ephemeris_type": 0,
        "meta_classification_type": "U",
        "meta_norad_cat_id": 34738,
        "meta_element_set_no": 999,
        "meta_rev_at_epoch": 87774,
        "meta_bstar": 0.00053304795,
        "meta_mean_motion_dot": 1.909e-05,
        "meta_mean_motion_ddot": 0,
        "tle_line1": "1 34738U 93036ZG  25340.91300207  .00001909  00000+0  53305-3 0  9999",
        "tle_line2": "2 34738  74.0142 154.1561 0047240 301.5148 181.0495 14.46280761877747"
      },
      "geometry": {
        "type": "Point",
        "coordinates": [
          -37.97477847081226,
          33.24380432686659
        ]
      }
    }
  ]
}